[{"OBJECT_NAME":"STARLINK-31859","OBJECT_ID":"2024-097P","EPOCH":"2026-03-09T12:56:25.613376","MEAN_MOTION":15.27571299,"ECCENTRICITY":0.00012421,"INCLINATION":43.0029,"RA_OF_ASC_NODE":268.2948,"ARG_OF_PERICENTER":243.0157,"MEAN_ANOMALY":117.0568,"EPHEMERIS_TYPE":0,"CLASSIFICATION_TYPE":"U","NORAD_CAT_ID":59848,"ELEMENT_SET_NO":999,"REV_AT_EPOCH":10197,"BSTAR":-2.0567973e-5,"MEAN_MOTION_DOT":-8.28e-6,"MEAN_MOTION_DDOT":0},{"OBJECT_NAME":"OTTER","OBJECT_ID":"2025-009Q","EPOCH":"2026-03-09T17:21:07.902432","MEAN_MOTION":15.27809545,"ECCENTRICITY":0.00035728,"INCLINATION":97.4065,"RA_OF_ASC_NODE":151.3812,"ARG_OF_PERICENTER":310.771,"MEAN_ANOMALY":49.3219,"EPHEMERIS_TYPE":0,"CLASSIFICATION_TYPE":"U","NORAD_CAT_ID":62623,"ELEMENT_SET_NO":999,"REV_AT_EPOCH":6372,"BSTAR":0.00045151206,"MEAN_MOTION_DOT":0.00012198,"MEAN_MOTION_DDOT":0}]
